#aV2008  8 31  0  0   .00000000      96 DD+AD WGS84 FIT  NGA
## 1495       .00000000   900.00000000 54709  .0000000000000
+   31     2  3  4  5  6  7  8  9 10 11 12 13 14 15 16 17 18
+         19 20 21 22 23 24 25 26 27 28 29 30 31 32  0  0  0
+          0  0  0  0  0  0  0  0  0  0  0  0  0  0  0  0  0
+          0  0  0  0  0  0  0  0  0  0  0  0  0  0  0  0  0
+          0  0  0  0  0  0  0  0  0  0  0  0  0  0  0  0  0
++         0  0  0  0  0  0  0  0  0  0  0  0  0  0  0  0  0
++         0  0  0  0  0  0  0  0  0  0  0  0  0  0  0  0  0
++         0  0  0  0  0  0  0  0  0  0  0  0  0  0  0  0  0
++         0  0  0  0  0  0  0  0  0  0  0  0  0  0  0  0  0
++         0  0  0  0  0  0  0  0  0  0  0  0  0  0  0  0  0
%c cc cc ccc ccc cccc cccc cccc cccc ccccc ccccc ccccc ccccc
%c cc cc ccc ccc cccc cccc cccc cccc ccccc ccccc ccccc ccccc
%f  0.0000000  0.000000000  0.00000000000  0.000000000000000
%f  0.0000000  0.000000000  0.00000000000  0.000000000000000
%i    0    0    0    0      0      0      0      0         0
%i    0    0    0    0      0      0      0      0         0
/*      NGA, ST. LOUIS,MO.                                  
/*   EPHEMERIS COMPUTED FROM  3 DAYS OF DATA                
/* CCCCCCCCCCCCCCCCCCCCCCCCCCCCCCCCCCCCCCCCCCCCCCCCCCCCCCCCC
/* CCCCCCCCCCCCCCCCCCCCCCCCCCCCCCCCCCCCCCCCCCCCCCCCCCCCCCCCC
*  2008  8 31 11 15   .00000000                                                 
P  2  13600.240336  18084.629966 -14337.950634    190.893228                    
V  2    739.895215  17995.801577  23263.868191      -.027836                    
P  3 -23551.107238 -11158.000500  -6302.760566    277.106502                    
V  3   8230.977094  -1309.930845 -29379.091356       .051380                    
P  4   6633.678037  25225.192820  -3916.501970   -157.854898                    
V  4  -2909.451523   5401.998423  31034.269297      -.107615                    
P  5  21209.146312 -14562.202050   6020.221253    231.579853                    
V  5  -3407.139480   8058.542209  30184.864912     -2.324992                    
P  6 -20397.960984 -14122.818230  -9286.691162    167.537619                    
V  6  12541.270922    696.964137 -28036.221941      -.004143                    
P  7  -8517.995951  19075.206301 -16377.362870     13.586328                    
V  7  -5069.331871 -20228.350952 -21052.186576       .031654                    
P  8  -1230.784502  25649.565267  -5757.415995   -167.991420                    
V  8  -3108.743794  -7009.729588 -31469.394680      -.015355                    
P  9  14395.443862  -2786.024254  21506.037096     12.619904                    
V  9   5565.279380  28286.703960     64.958753       .018714                    
P 10  15700.125045   6166.364497 -20728.916105     -4.380631                    
V 10 -20138.548663  16345.863196 -10138.832913      -.003860                    
P 11 -15511.856227   5982.466141  20545.582058     20.705040                    
V 11  -9469.953837 -25074.058841    492.574575      -.007926                    
P 12  22672.119993  -8634.941258  10766.532081   -352.733954                    
V 12  -9086.872689  10382.285637  27758.267375       .013273                    
P 13 -12924.247465   9394.800815 -21332.582839    269.542905                    
V 13 -24232.679146 -11274.016952   9775.158086       .012771                    
P 14  -6645.388076 -16795.458344  19621.211292   -225.551680                    
V 14  22956.547625   8799.947086  15280.808686       .045964                    
P 15  25474.593277   6131.143995   4421.797768   -169.285915                    
V 15   4246.697553   4607.344137 -31015.165622      -.065002                    
P 16 -10620.582300 -10791.330586 -21769.499121    109.423950                    
V 16  21878.306505 -17087.469933  -1992.732522      -.019606                    
P 17   6542.819424  17162.825787  19288.227709     38.869707                    
V 17 -23057.643412  -7913.741782  14728.531698       .000148                    
P 18  15815.470224 -19450.840036   8382.894286   -139.025183                    
V 18  10368.222374  -3687.488514 -29169.503349       .041222                    
P 19 -25030.619267  -7130.578409   5902.766701     35.138817                    
V 19  -5550.224388  -5493.745972 -30373.479449       .002900                    
P 20 -22531.338816  11653.089881   7706.460825    105.949190                    
V 20   5621.166102  -8804.782380  29348.997283      -.010446                    
P 21   5876.931706 -22549.418385 -11944.755783     52.419505                    
V 21   5565.609725  15178.215671 -26086.189695      -.014567                    
P 22   4149.803046 -19263.548632  17940.623851    211.147207                    
V 22  19206.515355 -11936.089315 -17478.657095      -.001799                    
P 23 -21849.667422   2580.386635 -15130.596926    371.273697                    
V 23 -17097.970712  -8383.699372  23093.255774       .015358                    
P 24  13352.158301 -10697.446078 -20220.659212    121.478436                    
V 24   3696.155203  25753.856497 -10823.966334       .030422                    
P 25 -10936.419426  13112.083178 -20037.513087   -234.863958                    
V 25  -7472.240161 -25103.593181 -11962.763795       .568267                    
P 26  24447.428222  11108.037650   -456.284792    318.484256                    
V 26   -500.445058   1221.912064 -32107.096467       .058524                    
P 27  -5038.222267  21538.516489 -13937.213900    214.174541                    
V 27  -6210.843199 -17975.125524 -24484.266139       .027411                    
P 28  -5296.981796  19379.203590  17590.513907    -22.181050                    
V 28 -18287.646722  11795.972454 -19254.219768      -.003338                    
P 29  16054.075241  -8104.881683 -19420.819937    -38.721898                    
V 29  22558.381598  10662.891943  14147.873378       .009569                    
P 30  18453.875172 -18870.040551  -2821.638189     94.113621                    
V 30   4500.002293    322.941364  31294.789591       .020304                    
P 31  -8568.898731 -24102.027327  -6734.389762    -25.079895                    
V 31   1127.589365  -9133.472051  30441.127817      -.000564                    
P 32 -22435.025401   3474.860127  14065.830501    315.203081                    
V 32  13121.518916 -11289.378104  24653.269848       .010801                    
EOF
